[
    {
        "CCSDS_OMM_VERS": "3.0",
        "COMMENT": "GENERATED VIA SPACE-TRACK.ORG API",
        "CREATION_DATE": "2025-04-14T03:05:54",
        "ORIGINATOR": "18 SPCS",
        "OBJECT_NAME": "QZS-2",
        "OBJECT_ID": "2017-028A",
        "CENTER_NAME": "EARTH",
        "REF_FRAME": "TEME",
        "TIME_SYSTEM": "UTC",
        "MEAN_ELEMENT_THEORY": "SGP4",
        "EPOCH": "2025-04-13T06:36:28.688256",
        "MEAN_MOTION": "1.00252525",
        "ECCENTRICITY": "0.07409700",
        "INCLINATION": "40.0966",
        "RA_OF_ASC_NODE": "249.4203",
        "ARG_OF_PERICENTER": "270.6239",
        "MEAN_ANOMALY": "279.8397",
        "EPHEMERIS_TYPE": "0",
        "CLASSIFICATION_TYPE": "U",
        "NORAD_CAT_ID": "42738",
        "ELEMENT_SET_NO": "999",
        "REV_AT_EPOCH": "331",
        "BSTAR": "0.00000000000000",
        "MEAN_MOTION_DOT": "-0.00000220",
        "MEAN_MOTION_DDOT": "0.0000000000000",
        "SEMIMAJOR_AXIS": "42170.132",
        "PERIOD": "1436.373",
        "APOAPSIS": "38916.677",
        "PERIAPSIS": "32667.317",
        "OBJECT_TYPE": "PAYLOAD",
        "RCS_SIZE": "LARGE",
        "COUNTRY_CODE": "JPN",
        "LAUNCH_DATE": "2017-06-01",
        "SITE": "TNSTA",
        "DECAY_DATE": null,
        "FILE": "4701263",
        "GP_ID": "285538261",
        "TLE_LINE0": "0 QZS-2",
        "TLE_LINE1": "1 42738U 17028A   25103.27533204 -.00000220  00000-0  00000-0 0  9994",
        "TLE_LINE2": "2 42738  40.0966 249.4203 0740970 270.6239 279.8397  1.00252525  3315"
    }
]